{
  "type": "FeatureCollection",
  "features": [
    {
      "type": "Feature",
      "properties": {},
      "geometry": {
        "coordinates": [
          [
            116.30371432947197,
            -8.895656518635604
          ],
          [
            116.30484750317663,
            -8.895338520556606
          ],
          [
            116.30754607415531,
            -8.894587195876298
          ],
          [
            116.30783744095004,
            -8.894506000738957
          ],
          [
            116.30800169309674,
            -8.894461503716514
          ],
          [
            116.3081375907318,
            -8.894481317746894
          ],
          [
            116.30830707650301,
            -8.894547432842202
          ],
          [
            116.3083981296769,
            -8.89463335346602
          ],
          [
            116.30847784104657,
            -8.8947449984732
          ],
          [
            116.3085102432023,
            -8.89487991703092
          ],
          [
            116.30852049181601,
            -8.895162878028287
          ],
          [
            116.30853897032216,
            -8.895863793092374
          ],
          [
            116.30857092611183,
            -8.89663759180553
          ],
          [
            116.30853310950124,
            -8.896775584305715
          ],
          [
            116.30846606510221,
            -8.896879698879118
          ],
          [
            116.30831313887035,
            -8.896976838733764
          ],
          [
            116.30791291840086,
            -8.896999193833452
          ],
          [
            116.3078029996143,
            -8.897055795779323
          ],
          [
            116.307574018774,
            -8.89747402621282
          ],
          [
            116.30757388561813,
            -8.897622445405801
          ],
          [
            116.30761649857652,
            -8.897718537687823
          ],
          [
            116.30800294311342,
            -8.898209394820412
          ],
          [
            116.30856380388093,
            -8.898660367360378
          ],
          [
            116.30892276437476,
            -8.89895608635463
          ],
          [
            116.3089871399946,
            -8.89913764292227
          ],
          [
            116.30900643306092,
            -8.899684429769096
          ],
          [
            116.30901992705128,
            -8.900267905769027
          ],
          [
            116.30902804202606,
            -8.900938045968175
          ],
          [
            116.30890027146205,
            -8.901159951616748
          ],
          [
            116.30862480234595,
            -8.901477394876679
          ],
          [
            116.30816678904796,
            -8.901997099875544
          ],
          [
            116.30770442904799,
            -8.902499346499113
          ],
          [
            116.30754948264627,
            -8.902563563202776
          ],
          [
            116.3073917282835,
            -8.902583352614727
          ],
          [
            116.30696928467808,
            -8.902588699313824
          ],
          [
            116.30668066969986,
            -8.902638765525964
          ],
          [
            116.30637620596235,
            -8.902761056912084
          ],
          [
            116.30617510454823,
            -8.90291666327937
          ],
          [
            116.30598904206767,
            -8.903110793767922
          ],
          [
            116.30547241097719,
            -8.9037477215183
          ],
          [
            116.30499728279244,
            -8.904025895967493
          ],
          [
            116.30433697255592,
            -8.904384640174712
          ],
          [
            116.30353090396358,
            -8.904820211921631
          ],
          [
            116.3029773391496,
            -8.905116931664125
          ],
          [
            116.30259466537632,
            -8.905320662016123
          ],
          [
            116.30244960086299,
            -8.905355693279361
          ],
          [
            116.30229880841284,
            -8.905321114945423
          ],
          [
            116.30217621896168,
            -8.905234928688444
          ],
          [
            116.30210470246351,
            -8.905117458919037
          ],
          [
            116.30209818474265,
            -8.904764765063746
          ],
          [
            116.30215265827724,
            -8.903746989871394
          ],
          [
            116.30219896595224,
            -8.902951102651741
          ],
          [
            116.30220601462833,
            -8.902862160957412
          ],
          [
            116.3022353264675,
            -8.902754993694586
          ],
          [
            116.3023540365698,
            -8.902622893870415
          ],
          [
            116.3025594936675,
            -8.902523083478087
          ],
          [
            116.30319223475846,
            -8.90228343245306
          ],
          [
            116.30347820326125,
            -8.902175337867973
          ],
          [
            116.30364245938614,
            -8.902110048351076
          ],
          [
            116.30382833346783,
            -8.90195398927078
          ],
          [
            116.30393331337535,
            -8.9018007499933
          ],
          [
            116.30400817757993,
            -8.901603945921622
          ],
          [
            116.30401447727434,
            -8.9014535683377
          ],
          [
            116.30400847157449,
            -8.901263385307516
          ],
          [
            116.30398686630207,
            -8.901041260462677
          ],
          [
            116.30395414628964,
            -8.900678756276122
          ],
          [
            116.30392765259285,
            -8.90033772934774
          ],
          [
            116.3038880552524,
            -8.899974022538203
          ],
          [
            116.30383380157735,
            -8.899427024140778
          ],
          [
            116.3038008118989,
            -8.899169143473202
          ],
          [
            116.30372228267686,
            -8.899000010552768
          ],
          [
            116.30364246678164,
            -8.898910917081892
          ],
          [
            116.30352528432036,
            -8.898826674609865
          ],
          [
            116.30332681421561,
            -8.89876851861294
          ],
          [
            116.30301015634706,
            -8.89875312855365
          ],
          [
            116.30264938770688,
            -8.898688897531983
          ],
          [
            116.30234616686704,
            -8.898566828236795
          ],
          [
            116.30209911915153,
            -8.898402908067169
          ],
          [
            116.3018121522586,
            -8.8980936615295
          ],
          [
            116.30169866556889,
            -8.897946727615349
          ],
          [
            116.3015201708256,
            -8.897683805134847
          ],
          [
            116.30128329592048,
            -8.897351912900035
          ],
          [
            116.30103105636385,
            -8.896980448297924
          ],
          [
            116.30073580324455,
            -8.89654234249491
          ],
          [
            116.30059961613995,
            -8.896292264862566
          ],
          [
            116.30052057807757,
            -8.896032318456534
          ],
          [
            116.30048671921139,
            -8.895745217893534
          ],
          [
            116.30050454822538,
            -8.89547000323553
          ],
          [
            116.30055082265721,
            -8.895215003465992
          ],
          [
            116.30063785065875,
            -8.89499883286922
          ],
          [
            116.30073182215784,
            -8.89482687205431
          ],
          [
            116.30081344923087,
            -8.894693023096451
          ],
          [
            116.30088377637657,
            -8.894602140923283
          ],
          [
            116.3009882876363,
            -8.894526914086754
          ],
          [
            116.30107406852204,
            -8.894531734098635
          ],
          [
            116.30117437760765,
            -8.894556337222028
          ],
          [
            116.30126584375557,
            -8.894623391203567
          ],
          [
            116.30131941056624,
            -8.894693329820683
          ],
          [
            116.30134656752307,
            -8.894819556778486
          ],
          [
            116.30135072133578,
            -8.89495822569637
          ],
          [
            116.30128260019973,
            -8.89551293571607
          ],
          [
            116.30122897196418,
            -8.896003710868627
          ],
          [
            116.30131780268414,
            -8.896177876415294
          ],
          [
            116.30141961903786,
            -8.896245293666212
          ],
          [
            116.30157330537912,
            -8.896243464854692
          ],
          [
            116.30209879255318,
            -8.896107741745027
          ],
          [
            116.30283802416545,
            -8.89590340305783
          ],
          [
            116.30341949272497,
            -8.89574106229179
          ],
          [
            116.30371526272887,
            -8.895657522479539
          ]
        ],
        "type": "LineString"
      }
    }
  ]
}